NORAD_CAT_ID,OBJECT_NAME,OBJECT_TYPE,EPOCH,MEAN_MOTION,ECCENTRICITY,INCLINATION,RA_OF_ASC_NODE,ARG_OF_PERICENTER,MEAN_ANOMALY,BSTAR,MEAN_MOTION_DOT,MEAN_MOTION_DDOT,TLE_LINE0,TLE_LINE1,TLE_LINE2,SEMIMAJOR_AXIS,PERIOD,APOGEE,PERIGEE,DECAYED
50836.0,STARLINK-3330,PAYLOAD,2022-07-10 17:20:05,15.08812885,0.0002557,53.218,65.4831,67.2002,292.926,0.0008658999999999,0.0001351,0.0,0 STARLINK-3330,1 50836U 22001AK  22191.72228423  .00013510  00000-0  86590-3 0  9993,2 50836  53.2180  65.4831 0002557  67.2002 292.9260 15.08812885 29531,6917.9630000000025,95.439,541.597,538.059,0.0
50836.0,STARLINK-3330,PAYLOAD,2022-07-11 10:49:20,15.08836189,0.0002505,53.2179,62.2114,67.3302,292.7955,0.0011790999999999,0.00018526,0.0,0 STARLINK-3330,1 50836U 22001AK  22192.45093329  .00018526  00000-0  11791-2 0  9991,2 50836  53.2179  62.2114 0002505  67.3302 292.7955 15.08836189 28288,6917.892,95.438,541.49,538.024,0.0
50836.0,STARLINK-3330,PAYLOAD,2022-07-11 20:21:39,15.08849936,0.0002506,53.2181,60.4276,67.2056,292.9201,0.0011954,0.00018793,0.0,0 STARLINK-3330,1 50836U 22001AK  22192.84837307  .00018793  00000-0  11954-2 0  9993,2 50836  53.2181  60.4276 0002506  67.2056 292.9201 15.08849936 28343,6917.85,95.437,541.4490000000002,537.981,0.0
50836.0,STARLINK-3330,PAYLOAD,2022-07-12 20:12:25,15.08879722,0.0002496,53.218,55.9672,69.594,290.532,0.0011249,0.0001768,0.0,0 STARLINK-3330,1 50836U 22001AK  22193.84195805  .00017680  00000-0  11249-2 0  9995,2 50836  53.2180  55.9672 0002496  69.5940 290.5320 15.08879722 28494,6917.759,95.435,541.351,537.8969999999998,0.0
50836.0,STARLINK-3330,PAYLOAD,2022-07-12 21:47:48,15.08875999,0.0002497,53.2184,55.6714,58.5029,301.6207,0.0007872,0.00012275,0.0,0 STARLINK-3330,1 50836U 22001AK  22193.90819798  .00012275  00000-0  78720-3 0  9999,2 50836  53.2184  55.6714 0002497  58.5029 301.6207 15.08875999 29861,6917.77,95.435,541.363,537.908,0.0
50836.0,STARLINK-3330,PAYLOAD,2022-07-13 13:41:39,15.08846027,0.0002949,53.2183,52.6964,67.4867,292.6437,0.001551,0.00024487,0.0,0 STARLINK-3330,1 50836U 22001AK  22194.57059104  .00024487  00000-0  15510-2 0  9995,2 50836  53.2183  52.6964 0002949  67.4867 292.6437 15.08846027 29960,6917.861999999999,95.437,541.7669999999998,537.687,0.0
50836.0,STARLINK-3330,PAYLOAD,2022-07-13 20:03:11,15.08854552,0.000173,53.217,51.5051,71.0805,289.0375,-0.00023938,-4.097e-05,0.0,0 STARLINK-3330,1 50836U 22001AK  22194.83554660 -.00004097  00000-0 -23938-3 0  9992,2 50836  53.2170  51.5051 0001730  71.0805 289.0375 15.08854552 28648,6917.8359999999975,95.437,540.898,538.504,0.0
50836.0,STARLINK-3330,PAYLOAD,2022-07-14 07:10:53,15.08837307,0.0002197,53.2175,49.4255,71.4934,288.6296,-0.00015124,-2.694e-05,0.0,0 STARLINK-3330,1 50836U 22001AK  22195.29923188 -.00002694  00000-0 -15124-3 0  9997,2 50836  53.2175  49.4255 0002197  71.4934 288.6296 15.08837307 30076,6917.889,95.438,541.273,538.234,0.0
50836.0,STARLINK-3330,PAYLOAD,2022-07-14 18:18:36,15.08825567,0.0002199,53.2175,47.3442,74.2791,285.8443,1.237e-05,-9.1e-07,0.0,0 STARLINK-3330,1 50836U 22001AK  22195.76291829 -.00000091  00000-0  12370-4 0  9998,2 50836  53.2175  47.3442 0002199  74.2791 285.8443 15.08825567 30141,6917.925,95.438,541.311,538.268,0.0
50836.0,STARLINK-3330,PAYLOAD,2022-07-14 19:53:59,15.08829328,0.0002238,53.218,47.0464,72.7422,287.3815,-0.00025158,-4.289e-05,0.0,0 STARLINK-3330,1 50836U 22001AK  22195.82915848 -.00004289  00000-0 -25158-3 0  9990,2 50836  53.2180  47.0464 0002238  72.7422 287.3815 15.08829328 28793,6917.913000000001,95.438,541.326,538.23,0.0
50836.0,STARLINK-3330,PAYLOAD,2022-07-15 07:01:41,15.08834587,0.0002243,53.2185,44.9642,71.5827,288.5408,-6.7773e-05,-1.367e-05,0.0,0 STARLINK-3330,1 50836U 22001AK  22196.29284240 -.00001367  00000-0 -67773-4 0  9991,2 50836  53.2185  44.9642 0002243  71.5827 288.5408 15.08834587 28866,6917.897,95.438,541.314,538.21,0.0
50836.0,STARLINK-3330,PAYLOAD,2022-07-15 21:20:09,15.08839768,0.0002099,53.2177,42.2873,70.9851,289.1368,0.00026737,3.97e-05,0.0,0 STARLINK-3330,1 50836U 22001AK  22196.88900334  .00003970  00000-0  26737-3 0  9999,2 50836  53.2177  42.2873 0002099  70.9851 289.1368 15.08839768 30314,6917.880999999999,95.438,541.198,538.294,0.0
50836.0,STARLINK-3330,PAYLOAD,2022-07-16 13:14:01,15.08844965,0.0001781,53.217,39.3132,75.8287,284.2902,0.0003637,5.506e-05,0.0,0 STARLINK-3330,1 50836U 22001AK  22197.55140144  .00005506  00000-0  36370-3 0  9990,2 50836  53.2170  39.3132 0001781  75.8287 284.2902 15.08844965 29050,6917.865,95.437,540.962,538.498,0.0
50836.0,STARLINK-3330,PAYLOAD,2022-07-16 19:35:33,15.08841323,0.0001758,53.218,38.1241,85.7035,274.4158,0.00022288,3.261e-05,0.0,0 STARLINK-3330,1 50836U 22001AK  22197.81636183  .00003261  00000-0  22288-3 0  9991,2 50836  53.2180  38.1241 0001758  85.7035 274.4158 15.08841323 29097,6917.876,95.437,540.9580000000002,538.525,0.0
50836.0,STARLINK-3330,PAYLOAD,2022-07-16 22:46:19,15.08844787,0.000196,53.218,37.5297,73.2662,286.8546,0.00027645,4.115e-05,0.0,0 STARLINK-3330,1 50836U 22001AK  22197.94884111  .00004115  00000-0  27645-3 0  9992,2 50836  53.2180  37.5297 0001960  73.2662 286.8546 15.08844787 30473,6917.866,95.437,541.087,538.375,0.0
50836.0,STARLINK-3330,PAYLOAD,2022-07-17 13:04:48,15.08844023,0.0001965,53.2179,34.8535,73.0209,287.0998,0.00016188,2.289e-05,0.0,0 STARLINK-3330,1 50836U 22001AK  22198.54500089  .00002289  00000-0  16188-3 0  9998,2 50836  53.2179  34.8535 0001965  73.0209 287.0998 15.08844023 29202,6917.868,95.437,541.092,538.374,0.0
50836.0,STARLINK-3330,PAYLOAD,2022-07-17 19:26:20,15.08847039,0.0001932,53.218,33.6636,73.6251,286.4954,0.00013057,1.791e-05,0.0,0 STARLINK-3330,1 50836U 22001AK  22198.80995737  .00001791  00000-0  13057-3 0  9994,2 50836  53.2180  33.6636 0001932  73.6251 286.4954 15.08847039 29249,6917.859,95.437,541.06,538.387,0.0
50836.0,STARLINK-3330,PAYLOAD,2022-07-18 12:55:34,15.08845792,0.0001932,53.2179,30.3932,72.1652,287.9551,-3.1497e-05,-7.9e-06,0.0,0 STARLINK-3330,1 50836U 22001AK  22199.53859533 -.00000790  00000-0 -31497-4 0  9997,2 50836  53.2179  30.3932 0001932  72.1652 287.9551 15.08845792 30716,6917.863,95.437,541.064,538.391,0.0
50836.0,STARLINK-3330,PAYLOAD,2022-07-18 19:17:06,15.08848897,0.0001885,53.2187,29.2039,65.7981,294.3208,5.3496e-05,5.64e-06,0.0,0 STARLINK-3330,1 50836U 22001AK  22199.80355270  .00000564  00000-0  53496-4 0  9996,2 50836  53.2187  29.2039 0001885  65.7981 294.3208 15.08848897 29392,6917.853,95.437,541.0219999999998,538.414,0.0
50836.0,STARLINK-3330,PAYLOAD,2022-07-19 11:10:57,15.08865934,0.000191,53.2187,26.2302,70.5878,289.532,-0.00015676,-2.784e-05,0.0,0 STARLINK-3330,1 50836U 22001AK  22200.46594045 -.00002784  00000-0 -15676-3 0  9991,2 50836  53.2187  26.2302 0001910  70.5878 289.5320 15.08865934 30855,6917.801,95.436,540.987,538.345,0.0
50836.0,STARLINK-3330,PAYLOAD,2022-07-19 20:43:16,15.08851482,0.0001774,53.2183,24.4459,69.3518,290.7665,0.00018171,2.606e-05,0.0,0 STARLINK-3330,1 50836U 22001AK  22200.86338705  .00002606  00000-0  18171-3 0  9998,2 50836  53.2183  24.4459 0001774  69.3518 290.7665 15.08851482 29553,6917.845,95.437,540.938,538.4830000000002,0.0
50836.0,STARLINK-3330,PAYLOAD,2022-07-20 12:37:08,15.08836695,0.0001808,53.2178,21.4725,69.6722,290.4464,-2.2679e-05,-6.49e-06,0.0,0 STARLINK-3330,1 50836U 22001AK  22201.52579261 -.00000649  00000-0 -22679-4 0  9992,2 50836  53.2178  21.4725 0001808  69.6722 290.4464 15.08836695 29652,6917.89,95.438,541.006,538.505,0.0
50836.0,STARLINK-3330,PAYLOAD,2022-07-20 18:58:41,15.08834579,0.0001533,53.219,20.2831,64.8873,295.2278,7.9347e-06,-1.62e-06,0.0,0 STARLINK-3330,1 50836U 22001AK  22201.79075707 -.00000162  00000-0  79347-5 0  9991,2 50836  53.2190  20.2831 0001533  64.8873 295.2278 15.08834579 29699,6917.897,95.438,540.822,538.701,0.0
50836.0,STARLINK-3330,PAYLOAD,2022-07-21 12:27:58,15.08802319,0.0001291999999999,53.2194,17.0127,71.0143,289.0989,-0.00028437,-4.806e-05,0.0,0 STARLINK-3330,1 50836U 22001AK  22202.51942938 -.00004806  00000-0 -28437-3 0  9993,2 50836  53.2194  17.0127 0001292  71.0143 289.0989 15.08802319 29807,6917.996,95.44,540.754,538.967,0.0
50836.0,STARLINK-3330,PAYLOAD,2022-07-21 20:24:54,15.08813867,0.0001593,53.219,15.5257,67.0216,293.0944,-0.00040045,-6.651e-05,0.0,0 STARLINK-3330,1 50836U 22001AK  22202.85063251 -.00006651  00000-0 -40045-3 0  9991,2 50836  53.2190  15.5257 0001593  67.0216 293.0944 15.08813867 29851,6917.96,95.439,540.927,538.7230000000002,0.0
50836.0,STARLINK-3330,PAYLOAD,2022-07-22 04:21:48,15.08830097,0.000127,53.2194,14.0392,72.9782,287.1349,-5.6153e-05,-1.181e-05,0.0,0 STARLINK-3330,1 50836U 22001AK  22203.18181690 -.00001181  00000-0 -56153-4 0  9997,2 50836  53.2194  14.0392 0001270  72.9782 287.1349 15.08830097 31269,6917.911,95.438,540.654,538.8969999999998,0.0
50836.0,STARLINK-3330,PAYLOAD,2022-07-22 05:57:12,15.08828479,0.0001675999999999,53.2177,13.7418,73.6298,286.4879,2.0795e-05,4.3e-07,0.0,0 STARLINK-3330,1 50836U 22001AK  22203.24805809  .00000043  00000-0  20795-4 0  9996,2 50836  53.2177  13.7418 0001676  73.6298 286.4879 15.08828479 29915,6917.916,95.438,540.94,538.621,0.0
50836.0,STARLINK-3330,PAYLOAD,2022-07-23 05:47:58,15.08838955,0.0001227,53.2194,9.2815,70.5308,289.5817,0.00017244,2.458e-05,0.0,0 STARLINK-3330,1 50836U 22001AK  22204.24165475  .00002458  00000-0  17244-3 0  9991,2 50836  53.2194   9.2815 0001227  70.5308 289.5817 15.08838955 31420,6917.884,95.438,540.597,538.9,0.0
50836.0,STARLINK-3330,PAYLOAD,2022-07-23 15:20:18,15.08790302,8.88e-05,53.2194,7.4972,258.0413,102.0479,0.0011274,0.00017676,0.0,0 STARLINK-3330,1 50836U 22001AK  22204.63910784  .00017676  00000-0  11274-2 0  9999,2 50836  53.2194   7.4972 0000888 258.0413 102.0479 15.08790302 31488,6918.031999999997,95.441,540.512,539.283,0.0
